{
  "type": "FeatureCollection",
  "features": [
    {
      "type": "Feature",
      "properties": {
        "norad_id": 36060,
        "name": "COSMOS 2251 DEB",
        "group": "cosmos-2251-debris",
        "lat": -71.11351878630117,
        "lon": 120.75346603028352,
        "alt_km": 757.2383303501465,
        "timestamp": "2025-12-07T16:44:04.310018+00:00",
        "meta_object_name": "COSMOS 2251 DEB",
        "meta_object_id": "1993-036AXX",
        "meta_epoch": "2025-12-04T02:36:53.095968",
        "meta_mean_motion": 14.41968213,
        "meta_eccentricity": 0.00149828,
        "meta_inclination": 74.0291,
        "meta_ra_of_asc_node": 250.5702,
        "meta_arg_of_pericenter": 348.4876,
        "meta_mean_anomaly": 11.5935,
        "meta_ephemeris_type": 0,
        "meta_classification_type": "U",
        "meta_norad_cat_id": 36060,
        "meta_element_set_no": 999,
        "meta_rev_at_epoch": 84885,
        "meta_bstar": 0.00063718489,
        "meta_mean_motion_dot": 2.066e-05,
        "meta_mean_motion_ddot": 0,
        "tle_line1": "1 36060U 93036AXX 25338.10894787  .00002066  00000+0  63718-3 0  9992",
        "tle_line2": "2 36060  74.0291 250.5702 0014982 348.4876  11.5935 14.41968213848851"
      },
      "geometry": {
        "type": "Point",
        "coordinates": [
          120.75346603028352,
          -71.11351878630117
        ]
      }
    },
    {
      "type": "Feature",
      "properties": {
        "norad_id": 36061,
        "name": "COSMOS 2251 DEB",
        "group": "cosmos-2251-debris",
        "lat": -49.36992959601513,
        "lon": -151.50529718304765,
        "alt_km": 804.0030710302472,
        "timestamp": "2025-12-07T16:44:04.310028+00:00",
        "meta_object_name": "COSMOS 2251 DEB",
        "meta_object_id": "1993-036AXY",
        "meta_epoch": "2025-12-06T19:33:46.533024",
        "meta_mean_motion": 14.3369459,
        "meta_eccentricity": 0.00368493,
        "meta_inclination": 74.0244,
        "meta_ra_of_asc_node": 10.6045,
        "meta_arg_of_pericenter": 100.4465,
        "meta_mean_anomaly": 260.0843,
        "meta_ephemeris_type": 0,
        "meta_classification_type": "U",
        "meta_norad_cat_id": 36061,
        "meta_element_set_no": 999,
        "meta_rev_at_epoch": 65019,
        "meta_bstar": 0.00049752015,
        "meta_mean_motion_dot": 1.365e-05,
        "meta_mean_motion_ddot": 0,
        "tle_line1": "1 36061U 93036AXY 25340.81512191  .00001365  00000+0  49752-3 0  9993",
        "tle_line2": "2 36061  74.0244  10.6045 0036849 100.4465 260.0843 14.33694590650193"
      },
      "geometry": {
        "type": "Point",
        "coordinates": [
          -151.50529718304765,
          -49.36992959601513
        ]
      }
    },
    {
      "type": "Feature",
      "properties": {
        "norad_id": 36073,
        "name": "COSMOS 2251 DEB",
        "group": "cosmos-2251-debris",
        "lat": -51.71066516182414,
        "lon": -49.461500317097624,
        "alt_km": 783.6010259948534,
        "timestamp": "2025-12-07T16:44:04.310039+00:00",
        "meta_object_name": "COSMOS 2251 DEB",
        "meta_object_id": "1993-036AYL",
        "meta_epoch": "2025-12-05T08:05:57.966144",
        "meta_mean_motion": 14.34937628,
        "meta_eccentricity": 0.00235374,
        "meta_inclination": 74.0317,
        "meta_ra_of_asc_node": 336.1285,
        "meta_arg_of_pericenter": 46.3529,
        "meta_mean_anomaly": 313.9569,
        "meta_ephemeris_type": 0,
        "meta_classification_type": "U",
        "meta_norad_cat_id": 36073,
        "meta_element_set_no": 999,
        "meta_rev_at_epoch": 70101,
        "meta_bstar": 0.00039460589,
        "meta_mean_motion_dot": 1.1e-05,
        "meta_mean_motion_ddot": 0,
        "tle_line1": "1 36073U 93036AYL 25339.33747646  .00001100  00000+0  39461-3 0  9999",
        "tle_line2": "2 36073  74.0317 336.1285 0023537  46.3529 313.9569 14.34937628701012"
      },
      "geometry": {
        "type": "Point",
        "coordinates": [
          -49.461500317097624,
          -51.71066516182414
        ]
      }
    },
    {
      "type": "Feature",
      "properties": {
        "norad_id": 36074,
        "name": "COSMOS 2251 DEB",
        "group": "cosmos-2251-debris",
        "lat": -69.23525735768902,
        "lon": -59.32169315655119,
        "alt_km": 780.9074918649867,
        "timestamp": "2025-12-07T16:44:04.310049+00:00",
        "meta_object_name": "COSMOS 2251 DEB",
        "meta_object_id": "1993-036AYM",
        "meta_epoch": "2025-12-04T07:35:54.379968",
        "meta_mean_motion": 14.43651509,
        "meta_eccentricity": 0.0041318,
        "meta_inclination": 73.9929,
        "meta_ra_of_asc_node": 356.1864,
        "meta_arg_of_pericenter": 90.6412,
        "meta_mean_anomaly": 269.9479,
        "meta_ephemeris_type": 0,
        "meta_classification_type": "U",
        "meta_norad_cat_id": 36074,
        "meta_element_set_no": 999,
        "meta_rev_at_epoch": 85788,
        "meta_bstar": 0.0017767,
        "meta_mean_motion_dot": 6.071e-05,
        "meta_mean_motion_ddot": 0,
        "tle_line1": "1 36074U 93036AYM 25338.31660162  .00006071  00000+0  17767-2 0  9990",
        "tle_line2": "2 36074  73.9929 356.1864 0041318  90.6412 269.9479 14.43651509857883"
      },
      "geometry": {
        "type": "Point",
        "coordinates": [
          -59.32169315655119,
          -69.23525735768902
        ]
      }
    },
    {
      "type": "Feature",
      "properties": {
        "norad_id": 36366,
        "name": "COSMOS 2251 DEB",
        "group": "cosmos-2251-debris",
        "lat": 44.94202405616892,
        "lon": -61.16634807676701,
        "alt_km": 782.5708865018514,
        "timestamp": "2025-12-07T16:44:04.310059+00:00",
        "meta_object_name": "COSMOS 2251 DEB",
        "meta_object_id": "1993-036AYT",
        "meta_epoch": "2025-12-06T13:42:50.322528",
        "meta_mean_motion": 14.33288178,
        "meta_eccentricity": 0.00910047,
        "meta_inclination": 74.0664,
        "meta_ra_of_asc_node": 284.3224,
        "meta_arg_of_pericenter": 313.7987,
        "meta_mean_anomaly": 45.5662,
        "meta_ephemeris_type": 0,
        "meta_classification_type": "U",
        "meta_norad_cat_id": 36366,
        "meta_element_set_no": 999,
        "meta_rev_at_epoch": 86200,
        "meta_bstar": 0.0036082315,
        "meta_mean_motion_dot": 0.00010391,
        "meta_mean_motion_ddot": 0,
        "tle_line1": "1 36366U 93036AYT 25340.57141577  .00010391  00000+0  36082-2 0  9990",
        "tle_line2": "2 36366  74.0664 284.3224 0091004 313.7987  45.5662 14.33288178862009"
      },
      "geometry": {
        "type": "Point",
        "coordinates": [
          -61.16634807676701,
          44.94202405616892
        ]
      }
    },
    {
      "type": "Feature",
      "properties": {
        "norad_id": 36367,
        "name": "COSMOS 2251 DEB",
        "group": "cosmos-2251-debris",
        "lat": -31.796722350814814,
        "lon": 70.10347761080754,
        "alt_km": 978.0561640079723,
        "timestamp": "2025-12-07T16:44:04.310069+00:00",
        "meta_object_name": "COSMOS 2251 DEB",
        "meta_object_id": "1993-036AYU",
        "meta_epoch": "2025-12-05T11:43:41.661696",
        "meta_mean_motion": 13.86269384,
        "meta_eccentricity": 0.02628289,
        "meta_inclination": 74.1003,
        "meta_ra_of_asc_node": 243.6494,
        "meta_arg_of_pericenter": 318.0487,
        "meta_mean_anomaly": 40.0764,
        "meta_ephemeris_type": 0,
        "meta_classification_type": "U",
        "meta_norad_cat_id": 36367,
        "meta_element_set_no": 999,
        "meta_rev_at_epoch": 57429,
        "meta_bstar": 0.0027381355,
        "meta_mean_motion_dot": 4.128e-05,
        "meta_mean_motion_ddot": 0,
        "tle_line1": "1 36367U 93036AYU 25339.48867664  .00004128  00000+0  27381-2 0  9994",
        "tle_line2": "2 36367  74.1003 243.6494 0262828 318.0487  40.0764 13.86269384574291"
      },
      "geometry": {
        "type": "Point",
        "coordinates": [
          70.10347761080754,
          -31.796722350814814
        ]
      }
    },
    {
      "type": "Feature",
      "properties": {
        "norad_id": 36369,
        "name": "COSMOS 2251 DEB",
        "group": "cosmos-2251-debris",
        "lat": -52.432715724499054,
        "lon": -77.58211603240142,
        "alt_km": 654.5583034211904,
        "timestamp": "2025-12-07T16:44:04.310079+00:00",
        "meta_object_name": "COSMOS 2251 DEB",
        "meta_object_id": "1993-036AYW",
        "meta_epoch": "2025-12-06T13:35:50.036640",
        "meta_mean_motion": 14.73392813,
        "meta_eccentricity": 0.00119896,
        "meta_inclination": 74.0324,
        "meta_ra_of_asc_node": 82.7677,
        "meta_arg_of_pericenter": 162.928,
        "meta_mean_anomaly": 197.2299,
        "meta_ephemeris_type": 0,
        "meta_classification_type": "U",
        "meta_norad_cat_id": 36369,
        "meta_element_set_no": 999,
        "meta_rev_at_epoch": 85831,
        "meta_bstar": 0.0028329417,
        "meta_mean_motion_dot": 0.00018403,
        "meta_mean_motion_ddot": 0,
        "tle_line1": "1 36369U 93036AYW 25340.56655135  .00018403  00000+0  28329-2 0  9999",
        "tle_line2": "2 36369  74.0324  82.7677 0011989 162.9280 197.2299 14.73392813858317"
      },
      "geometry": {
        "type": "Point",
        "coordinates": [
          -77.58211603240142,
          -52.432715724499054
        ]
      }
    }
  ]
}